[{"OBJECT_NAME":"KHALIFASAT","OBJECT_ID":"2018-084F","EPOCH":"2026-03-09T22:37:07.705056","MEAN_MOTION":15.0097364,"ECCENTRICITY":0.00062701,"INCLINATION":98.0864,"RA_OF_ASC_NODE":247.4233,"ARG_OF_PERICENTER":83.8573,"MEAN_ANOMALY":276.3364,"EPHEMERIS_TYPE":0,"CLASSIFICATION_TYPE":"U","NORAD_CAT_ID":43676,"ELEMENT_SET_NO":999,"REV_AT_EPOCH":40088,"BSTAR":0.00043724412,"MEAN_MOTION_DOT":5.516e-5,"MEAN_MOTION_DDOT":0},{"OBJECT_NAME":"STARLINK-4453","OBJECT_ID":"2022-099AJ","EPOCH":"2026-03-09T21:03:48.481344","MEAN_MOTION":15.01259292,"ECCENTRICITY":0.00017562,"INCLINATION":97.6024,"RA_OF_ASC_NODE":190.4087,"ARG_OF_PERICENTER":77.346,"MEAN_ANOMALY":282.7961,"EPHEMERIS_TYPE":0,"CLASSIFICATION_TYPE":"U","NORAD_CAT_ID":53497,"ELEMENT_SET_NO":999,"REV_AT_EPOCH":19601,"BSTAR":3.9313934e-5,"MEAN_MOTION_DOT":4.47e-6,"MEAN_MOTION_DDOT":0}]
